{"type":"FeatureCollection","features":[{"type":"Feature","properties":{"@id":"way/124147434","access":"private","highway":"residential","motorcar":"destination","motorcycle":"destination","name":"Jalan Taman Sido Luhur","sidewalk":"no","smoothness":"intermediate","surface":"asphalt","width":4},"geometry":{"coordinates":[[107.6324961,-6.8928405],[107.6325677,-6.8932771]],"type":"LineString"}},{"type":"Feature","properties":{"@id":"way/4744776","access":"private","avgspeed":15,"highway":"residential","lanes":2,"motorcar":"yes","motorcycle":"yes","name":"Jalan Batik Tiga Negeri","smoothness":"good","surface":"concrete","width":5},"geometry":{"coordinates":[[107.6329264,-6.8970377],[107.6326678,-6.8964618],[107.6326043,-6.8963203],[107.6324303,-6.895933],[107.6323587,-6.8957734],[107.6322468,-6.8955249],[107.6320719,-6.8951347],[107.6318901,-6.8947299]],"type":"LineString"}},{"type":"Feature","properties":{"@id":"way/4744780","access":"private","avgspeed":15,"highway":"residential","motorcar":"yes","motorcycle":"yes","name":"Jalan Batik Rucita","sidewalk":"no","smoothness":"good","surface":"asphalt","width":4},"geometry":{"coordinates":[[107.6322468,-6.8955249],[107.6325282,-6.8953928],[107.632631,-6.8953514],[107.6327536,-6.8953156],[107.6328602,-6.8952949],[107.6329828,-6.8952812],[107.6331249,-6.8952731],[107.633227,-6.8952725],[107.6333486,-6.8952773]],"type":"LineString"}},{"type":"Feature","properties":{"@id":"way/4744825","access":"private","avgspeed":15,"highway":"residential","motorcar":"yes","motorcycle":"yes","sidewalk":"no","smoothness":"good","surface":"asphalt","width":3},"geometry":{"coordinates":[[107.6332999,-6.8937032],[107.6331323,-6.8936861],[107.6329693,-6.8936789],[107.6328061,-6.8936807],[107.6326432,-6.8936913]],"type":"LineString"}},{"type":"Feature","properties":{"@id":"way/4744826","access":"private","avgspeed":15,"highway":"residential","motorcar":"yes","motorcycle":"yes","name":"Jalan Taman Sido Luhur","sidewalk":"no","smoothness":"good","surface":"asphalt","width":4},"geometry":{"coordinates":[[107.63339,-6.8932718],[107.6333456,-6.8934844],[107.6332999,-6.8937032],[107.6332463,-6.8939605]],"type":"LineString"}},{"type":"Feature","properties":{"@id":"way/124147430","highway":"living_street","motorcycle":"yes","name":"Jalan Kawung Ece","sidewalk":"no","smoothness":"good","surface":"asphalt","width":3},"geometry":{"coordinates":[[107.6312426,-6.8962996],[107.6312639,-6.8963561]],"type":"LineString"}},{"type":"Feature","properties":{"@id":"way/124147431","highway":"residential","lanes":1,"motorcar":"yes","motorcycle":"yes","name":"Jalan Batik Pekalongan","oneway":"yes","smoothness":"good","surface":"asphalt","width":2.5},"geometry":{"coordinates":[[107.6312638,-6.8958679],[107.6312287,-6.8958056],[107.6304013,-6.8942119],[107.6303868,-6.8941829]],"type":"LineString"}},{"type":"Feature","properties":{"@id":"way/124147433","access":"private","highway":"residential","motorcar":"yes","motorcycle":"yes","name":"Jalan Sido Mulyo","sidewalk":"no","smoothness":"good","surface":"asphalt","width":4},"geometry":{"coordinates":[[107.6311668,-6.8937789],[107.631624,-6.8935547],[107.6318402,-6.8934626],[107.6320727,-6.8933778],[107.6323494,-6.8933141],[107.6325677,-6.8932771],[107.6326447,-6.8932675],[107.6327988,-6.8932535],[107.6330245,-6.8932454],[107.6332114,-6.89325],[107.63339,-6.8932718],[107.6338197,-6.8933465],[107.6340102,-6.8933771]],"type":"LineString"}},{"type":"Feature","properties":{"@id":"way/124147444","access":"private","highway":"residential","motorcar":"yes","motorcycle":"yes","name":"Jalan Batik Lasem","sidewalk":"no","smoothness":"intermediate","surface":"asphalt","width":4},"geometry":{"coordinates":[[107.6323019,-6.8940729],[107.6320727,-6.8933778]],"type":"LineString"}},{"type":"Feature","properties":{"@id":"way/124147446","access":"private","highway":"residential","motorcar":"yes","motorcycle":"yes","name":"Jalan Sido Luhur","sidewalk":"no","smoothness":"good","surface":"asphalt","width":4},"geometry":{"coordinates":[[107.6311201,-6.8946236],[107.6314638,-6.8944435],[107.631874,-6.894244],[107.6320924,-6.8941477],[107.6323019,-6.8940729],[107.6326943,-6.893969],[107.6329609,-6.8939567],[107.6332463,-6.8939605],[107.6336658,-6.8939983],[107.6341292,-6.8940755]],"type":"LineString"}},{"type":"Feature","properties":{"@id":"way/124147448","access":"private","highway":"residential","motorcar":"yes","motorcycle":"yes","name":"Jalan Batik Putri Ayu","sidewalk":"no","smoothness":"good","surface":"asphalt","width":3},"geometry":{"coordinates":[[107.631874,-6.894244],[107.631624,-6.8935547]],"type":"LineString"}},{"type":"Feature","properties":{"@id":"way/124147449","highway":"residential","lanes":2,"motorcar":"yes","motorcycle":"yes","name":"Jalan Rereng Adumanis","sidewalk":"both","smoothness":"good","surface":"asphalt","width":5},"geometry":{"coordinates":[[107.6305331,-6.89354],[107.6307614,-6.8940198],[107.6310629,-6.8946533],[107.6312627,-6.895073],[107.6314455,-6.895457],[107.6315763,-6.895732],[107.6317301,-6.8960551]],"type":"LineString"}},{"type":"Feature","properties":{"@id":"way/124147451","highway":"residential","lanes":1,"motorcar":"yes","motorcycle":"yes","name":"Jalan Giringsing","oneway":"yes","smoothness":"good","surface":"asphalt","width":2},"geometry":{"coordinates":[[107.6304198,-6.8962631],[107.6303758,-6.896193],[107.6295818,-6.8949268],[107.6295677,-6.8949106],[107.6295473,-6.8948785]],"type":"LineString"}},{"type":"Feature","properties":{"@id":"way/124147453","access":"private","highway":"residential","name":"Jalan Rereng Wulung"},"geometry":{"coordinates":[[107.6323587,-6.8957734],[107.6319564,-6.8959556]],"type":"LineString"}},{"type":"Feature","properties":{"@id":"way/124147454","highway":"residential","motorcar":"yes","motorcycle":"yes","name":"Jalan Jalaprang","oneway":"no","sidewalk":"no","smoothness":"good","surface":"asphalt","width":3},"geometry":{"coordinates":[[107.6306635,-6.8961127],[107.6308502,-6.8964949]],"type":"LineString"}},{"type":"Feature","properties":{"@id":"way/124147455","access":"private","highway":"residential","motorcar":"yes","motorcycle":"yes","name":"Jalan Batik Jonas","sidewalk":"no","smoothness":"good","surface":"asphalt","width":3},"geometry":{"coordinates":[[107.6320719,-6.8951347],[107.6322926,-6.895019],[107.6325111,-6.8949289],[107.6327415,-6.8948695],[107.6329776,-6.8948391],[107.6332157,-6.8948481],[107.6334519,-6.8948665]],"type":"LineString"}},{"type":"Feature","properties":{"@id":"way/124147456","access":"private","highway":"residential","motorcar":"yes","motorcycle":"yes","name":"Jalan Pecah Kopi","sidewalk":"no","smoothness":"good","surface":"asphalt","width":3},"geometry":{"coordinates":[[107.6335607,-6.8944339],[107.6334519,-6.8948665],[107.6333486,-6.8952773],[107.6332512,-6.8956646],[107.6331554,-6.8960869]],"type":"LineString"}},{"type":"Feature","properties":{"@id":"way/124147458","highway":"residential","lanes":1,"motorcar":"yes","motorcycle":"yes","smoothness":"good","surface":"asphalt","width":3},"geometry":{"coordinates":[[107.6303678,-6.8962991],[107.6305811,-6.8966577]],"type":"LineString"}},{"type":"Feature","properties":{"@id":"way/124147459","highway":"residential","lanes":1,"motorcar":"yes","motorcycle":"yes","name":"Jalan Batik Yogya","oneway":"yes","smoothness":"good","surface":"asphalt","width":2.5},"geometry":{"coordinates":[[107.6309798,-6.8959789],[107.6309444,-6.8959094],[107.6301012,-6.8944585],[107.6300894,-6.8944385],[107.6300699,-6.894406]],"type":"LineString"}},{"type":"Feature","properties":{"@id":"way/124147462","bicycle":"yes","foot":"yes","highway":"living_street","horse":"yes","motorcycle":"yes","name":"Jalan Kawung Ungu","oneway":"no","sidewalk":"no","surface":"asphalt","width":3},"geometry":{"coordinates":[[107.631581,-6.8961333],[107.6316002,-6.8961814]],"type":"LineString"}},{"type":"Feature","properties":{"@id":"way/124147466","access":"private","highway":"residential","lanes":1,"motorcar":"yes","motorcycle":"yes","name":"Jalan Menteron","oneway":"yes","smoothness":"good","surface":"asphalt","width":2},"geometry":{"coordinates":[[107.6306812,-6.8960482],[107.6306628,-6.8960186],[107.6298594,-6.8946805],[107.629845,-6.8946572]],"type":"LineString"}},{"type":"Feature","properties":{"@id":"way/124147467","access":"private","avgspeed":15,"highway":"residential","motorcar":"yes","motorcycle":"yes","name":"Jalan Batik Uwit","sidewalk":"no","smoothness":"good","source":"Bing","surface":"asphalt","width":3},"geometry":{"coordinates":[[107.6324303,-6.895933],[107.6326225,-6.8958261],[107.6327195,-6.8957839],[107.6328717,-6.8957262],[107.6329997,-6.8956891],[107.6331525,-6.8956667],[107.6332512,-6.8956646]],"type":"LineString"}},{"type":"Feature","properties":{"@id":"way/124147468","highway":"residential","lanes":1,"motorcar":"yes","motorcycle":"yes","name":"Jalan Gambir Saketi","oneway":"yes","sidewalk":"no","smoothness":"good","surface":"asphalt","width":2.5},"geometry":{"coordinates":[[107.6301537,-6.8964473],[107.6301076,-6.8963741],[107.629319,-6.8952104],[107.6292814,-6.895152]],"type":"LineString"}},{"type":"Feature","properties":{"@id":"way/124147470","access":"private","highway":"residential","name":"Jalan Merak Ngibing"},"geometry":{"coordinates":[[107.6309538,-6.8968933],[107.6309296,-6.896908],[107.6300153,-6.897461]],"type":"LineString"}},{"type":"Feature","properties":{"@id":"way/124147474","highway":"living_street","motorcycle":"yes","name":"Jalan Kawung Picis","sidewalk":"no","smoothness":"good","surface":"asphalt","width":3},"geometry":{"coordinates":[[107.6319196,-6.8959719],[107.6319301,-6.8959973]],"type":"LineString"}},{"type":"Feature","properties":{"@id":"way/124147478","highway":"residential","motorcar":"yes","motorcycle":"yes","name":"Jalan Rereng Suliga","sidewalk":"no","smoothness":"good","surface":"asphalt","width":3},"geometry":{"coordinates":[[107.6299185,-6.8965911],[107.6299433,-6.8965844],[107.6301537,-6.8964473],[107.6303678,-6.8962991],[107.6304198,-6.8962631],[107.6306635,-6.8961127],[107.6307076,-6.8960906],[107.6309798,-6.8959789],[107.6312638,-6.8958679],[107.6314178,-6.8958002],[107.6315124,-6.8957616],[107.6315763,-6.895732]],"type":"LineString"}},{"type":"Feature","properties":{"@id":"way/124147483","highway":"residential","motorcar":"yes","motorcycle":"yes","name":"Jalan Rereng Barong","sidewalk":"no","smoothness":"good","surface":"asphalt","width":4},"geometry":{"coordinates":[[107.6290334,-6.895407],[107.6292814,-6.895152],[107.6295473,-6.8948785],[107.6298225,-6.8946243],[107.6300232,-6.8944388],[107.6300699,-6.894406],[107.6303868,-6.8941829],[107.6307614,-6.8940198]],"type":"LineString"}},{"type":"Feature","properties":{"@id":"way/158466057","highway":"residential","name":"Jalan Sido Mukti"},"geometry":{"coordinates":[[107.6292831,-6.8964638],[107.6297522,-6.8970385],[107.6297978,-6.8971063],[107.6298179,-6.8971173],[107.6298434,-6.8971144]],"type":"LineString"}},{"type":"Feature","properties":{"@id":"way/320814670","access":"private","highway":"residential","motorcar":"yes","motorcycle":"yes","name":"Jalan Pecah Kopi","sidewalk":"no","smoothness":"good","surface":"asphalt","width":3},"geometry":{"coordinates":[[107.6331554,-6.8960869],[107.6330953,-6.8963518],[107.6330708,-6.896403],[107.6330361,-6.8964342],[107.6329868,-6.8964523],[107.6329238,-6.8964592],[107.632798,-6.8964713],[107.6326678,-6.8964618]],"type":"LineString"}},{"type":"Feature","properties":{"@id":"way/331287569","highway":"residential","lanes":2,"motorcar":"yes","motorcycle":"yes","name":"Jalan Jalaprang","smoothness":"good","surface":"asphalt","width":5},"geometry":{"coordinates":[[107.6308502,-6.8964949],[107.6310127,-6.8968597],[107.6311889,-6.8972552],[107.6314243,-6.8977836]],"type":"LineString"}},{"type":"Feature","properties":{"@id":"way/331287571","highway":"residential","lanes":2,"motorcar":"yes","motorcycle":"yes","name":"Jalan Rereng Wulung","smoothness":"good","surface":"asphalt","width":4},"geometry":{"coordinates":[[107.6308502,-6.8964949],[107.6305811,-6.8966577],[107.6298434,-6.8971144]],"type":"LineString"}},{"type":"Feature","properties":{"@id":"way/331287573","highway":"residential","lanes":2,"motorcar":"yes","motorcycle":"yes","name":"Jalan Rereng Wulung","smoothness":"good","surface":"asphalt","width":5},"geometry":{"coordinates":[[107.6317301,-6.8960551],[107.631581,-6.8961333],[107.6312426,-6.8962996],[107.6308502,-6.8964949]],"type":"LineString"}},{"type":"Feature","properties":{"@id":"way/331287577","access":"yes","bicycle":"yes","cycleway":"no","foot":"yes","highway":"residential","horse":"yes","motorcar":"yes","motorcycle":"yes","name":"Jalan Sido Mukti","oneway":"no","sidewalk":"both","smoothness":"good","surface":"asphalt","width":6},"geometry":{"coordinates":[[107.6305331,-6.89354],[107.6302966,-6.89367],[107.6300567,-6.8938212],[107.6298482,-6.8939911],[107.6296692,-6.8941606],[107.6291787,-6.8946443],[107.6287803,-6.8950624],[107.6284846,-6.8953727]],"type":"LineString"}},{"type":"Feature","properties":{"@id":"way/331287578","access":"yes","bicycle":"yes","cycleway":"no","foot":"yes","highway":"residential","horse":"yes","lanes":2,"motorcar":"yes","motorcycle":"yes","name":"Jalan Sido Mukti","oneway":"no","sidewalk":"both","smoothness":"good","surface":"asphalt","width":6},"geometry":{"coordinates":[[107.6344448,-6.8929252],[107.6342036,-6.8928823],[107.6332768,-6.8927347],[107.6328817,-6.8927122],[107.6326771,-6.8927274],[107.6324828,-6.8927497],[107.6323067,-6.8927908],[107.6318575,-6.8929135],[107.6316632,-6.8929907],[107.6315518,-6.8930317],[107.6309681,-6.8933285],[107.6305486,-6.8935333],[107.6305331,-6.89354]],"type":"LineString"}},{"type":"Feature","properties":{"@id":"way/564995552","access":"private","highway":"residential","motorcar":"yes","motorcycle":"yes","name":"Jalan Taman Sido Luhur","sidewalk":"no","smoothness":"good","surface":"asphalt","width":4},"geometry":{"coordinates":[[107.6325677,-6.8932771],[107.6326432,-6.8936913],[107.6326943,-6.893969],[107.6327759,-6.8944145]],"type":"LineString"}},{"type":"Feature","properties":{"@id":"way/569202161","access":"private","highway":"residential","motorcar":"yes","motorcycle":"yes","name":"Jalan Sido Mulyo","sidewalk":"no","smoothness":"good","surface":"asphalt","width":3},"geometry":{"coordinates":[[107.6314638,-6.8944435],[107.6311668,-6.8937789]],"type":"LineString"}},{"type":"Feature","properties":{"@id":"way/569202199","access":"private","highway":"residential","motorcar":"yes","motorcycle":"yes","name":"Jalan Batik Kumeli","sidewalk":"no","smoothness":"intermediate","surface":"asphalt","width":6},"geometry":{"coordinates":[[107.6344058,-6.8930549],[107.6341292,-6.8940755],[107.6340278,-6.8945005],[107.6337082,-6.8957701],[107.6334969,-6.8966015],[107.6334406,-6.8967401],[107.6333764,-6.8968191]],"type":"LineString"}},{"type":"Feature","properties":{"@id":"way/569202200","access":"private","avgspeed":15,"highway":"residential","motorcar":"yes","motorcycle":"yes","name":"Batik Rengganis","sidewalk":"no","smoothness":"good","surface":"asphalt","width":5},"geometry":{"coordinates":[[107.6340278,-6.8945005],[107.6335607,-6.8944339],[107.6332413,-6.8944084],[107.632949,-6.8944024],[107.6327759,-6.8944145],[107.6325471,-6.894457],[107.6323168,-6.8945427],[107.6318901,-6.8947299],[107.6313221,-6.8950381]],"type":"LineString"}},{"type":"Feature","properties":{"@id":"way/569202341","access":"private","highway":"service","motor_vehicle":"no","service":"alley"},"geometry":{"coordinates":[[107.6333456,-6.8934844],[107.6333141,-6.8934743],[107.6331391,-6.8934456],[107.632822,-6.8934383]],"type":"LineString"}},{"type":"Feature","properties":{"@id":"way/763515044","highway":"residential","name":"Jalan Batik Jonas"},"geometry":{"coordinates":[[107.6314455,-6.895457],[107.6314963,-6.8954318]],"type":"LineString"}},{"type":"Feature","properties":{"@id":"way/763519798","highway":"residential","lanes":2,"motorcar":"yes","motorcycle":"permissive","name":"Jalan Rereng Wulung","smoothness":"good","surface":"asphalt","width":5},"geometry":{"coordinates":[[107.6319196,-6.8959719],[107.6317301,-6.8960551]],"type":"LineString"}},{"type":"Feature","properties":{"@id":"way/763519799","highway":"residential","name":"Jalan Rereng Wulung"},"geometry":{"coordinates":[[107.6319564,-6.8959556],[107.6319196,-6.8959719]],"type":"LineString"}},{"type":"Feature","properties":{"@id":"way/771189175","highway":"residential","motorcar":"destination","motorcycle":"yes","name":"Jalan Gambir Anom Buntu Bawah","sidewalk":"no","smoothness":"good","surface":"asphalt","width":3},"geometry":{"coordinates":[[107.6295463,-6.8961065],[107.6298981,-6.8965869],[107.6299185,-6.8965911]],"type":"LineString"}},{"type":"Feature","properties":{"@id":"way/771189176","highway":"residential","motorcar":"yes","motorcycle":"yes","name":"Jalan Gambir Anom Buntu Atas","sidewalk":"no","smoothness":"good","surface":"asphalt","width":3},"geometry":{"coordinates":[[107.6287803,-6.8950624],[107.6288087,-6.8951013],[107.6290334,-6.895407]],"type":"LineString"}},{"type":"Feature","properties":{"@id":"way/958900456","access":"private","highway":"residential","motorcar":"yes","motorcycle":"yes","name":"Jalan Batik Keris","sidewalk":"no","smoothness":"good","surface":"asphalt","width":3},"geometry":{"coordinates":[[107.6331554,-6.8960869],[107.6326043,-6.8963203]],"type":"LineString"}},{"type":"Feature","properties":{"@id":"way/1061316868","highway":"residential","name":"Jalan Sido Mukti"},"geometry":{"coordinates":[[107.6284846,-6.8953727],[107.6287356,-6.8956991],[107.6291275,-6.8962335]],"type":"LineString"}},{"type":"Feature","properties":{"@id":"way/1189706382","highway":"residential","motorcar":"destination","motorcycle":"yes","name":"Jalan Gambir Anom Buntu Atas","sidewalk":"no","smoothness":"good","surface":"asphalt","width":3},"geometry":{"coordinates":[[107.6290334,-6.895407],[107.6293995,-6.8959101]],"type":"LineString"}},{"type":"Feature","properties":{"@id":"way/1189764694","access":"private","highway":"residential","motorcar":"destination","motorcycle":"destination","name":"Jalan Sido Mulyo","sidewalk":"no","smoothness":"good","surface":"asphalt","width":4},"geometry":{"coordinates":[[107.630998,-6.8938617],[107.6311668,-6.8937789]],"type":"LineString"}},{"type":"Feature","properties":{"@id":"way/1222119011","access":"private","highway":"residential","motorcar":"yes","motorcycle":"yes","name":"Jalan Batik Jonas","sidewalk":"no","smoothness":"good","surface":"asphalt","width":3},"geometry":{"coordinates":[[107.6314963,-6.8954318],[107.6320719,-6.8951347]],"type":"LineString"}},{"type":"Feature","properties":{"@id":"way/1222119012","access":"private","avgspeed":15,"highway":"residential","motorcar":"yes","motorcycle":"yes","name":"Jalan Batik Uwit","sidewalk":"no","smoothness":"good","source":"Bing","surface":"asphalt","width":3},"geometry":{"coordinates":[[107.6332512,-6.8956646],[107.6337082,-6.8957701]],"type":"LineString"}},{"type":"Feature","properties":{"@id":"way/1222119014","highway":"residential","motorcar":"yes","motorcycle":"yes","name":"Jalan Sido Luhur","sidewalk":"no","smoothness":"good","surface":"asphalt","width":4},"geometry":{"coordinates":[[107.6310629,-6.8946533],[107.6311201,-6.8946236]],"type":"LineString"}},{"type":"Feature","properties":{"@id":"way/1223815714","highway":"living_street","motorcycle":"yes","name":"Jalan Kawung Ece","sidewalk":"no","smoothness":"good","surface":"asphalt","width":3},"geometry":{"coordinates":[[107.6312639,-6.8963561],[107.6318012,-6.8975886]],"type":"LineString"}},{"type":"Feature","properties":{"@id":"way/1223815715","highway":"living_street","motorcycle":"yes","name":"Jalan Kawung Picis","sidewalk":"no","smoothness":"good","surface":"asphalt","width":3},"geometry":{"coordinates":[[107.6319301,-6.8959973],[107.6324684,-6.8972437]],"type":"LineString"}},{"type":"Feature","properties":{"@id":"way/1223815716","bicycle":"yes","foot":"yes","highway":"living_street","horse":"yes","motorcycle":"yes","name":"Jalan Kawung Ungu","oneway":"no","sidewalk":"no","surface":"asphalt","width":3},"geometry":{"coordinates":[[107.6316002,-6.8961814],[107.6321327,-6.8974175]],"type":"LineString"}},{"type":"Feature","properties":{"@id":"way/1223815718","access":"private","highway":"residential","lanes":2,"motorcar":"yes","motorcycle":"yes","name":"Jalan Batik Kumeli","smoothness":"good","surface":"asphalt","width":4},"geometry":{"coordinates":[[107.6333764,-6.8968191],[107.6329264,-6.8970377]],"type":"LineString"}},{"type":"Feature","properties":{"@id":"way/1223829154","highway":"residential","name":"Jalan Merak Ngibing"},"geometry":{"coordinates":[[107.6310127,-6.8968597],[107.6309538,-6.8968933]],"type":"LineString"}},{"type":"Feature","properties":{"@id":"way/1223912702","highway":"residential","lanes":1,"motorcar":"yes","motorcycle":"yes","name":"Jalan Menteron","oneway":"yes","smoothness":"good","surface":"asphalt","width":2},"geometry":{"coordinates":[[107.629845,-6.8946572],[107.6298225,-6.8946243]],"type":"LineString"}},{"type":"Feature","properties":{"@id":"way/1223912703","highway":"residential","lanes":1,"motorcar":"yes","motorcycle":"yes","name":"Jalan Menteron","oneway":"yes","smoothness":"good","surface":"asphalt","width":2},"geometry":{"coordinates":[[107.6307076,-6.8960906],[107.6306812,-6.8960482]],"type":"LineString"}},{"type":"Feature","properties":{"@id":"way/1223924121","avgspeed":15,"highway":"residential","motorcar":"yes","motorcycle":"yes","name":"Batik Rengganis","sidewalk":"no","smoothness":"good","surface":"asphalt","width":5},"geometry":{"coordinates":[[107.6313221,-6.8950381],[107.6312627,-6.895073]],"type":"LineString"}}]}